MALLIGYONG-1            
1 58400U 23179A   24037.48712101  .00008276  00000+0  36162-3 0  9992
2 58400  97.4233 286.2620 0016154  14.9034 345.2675 15.22238437 11697
